[
    {
      "OBJECT_NAME": "IRIDIUM 115",
      "OBJECT_ID": "2017-039D",
      "EPOCH": "2026-03-26T21:24:45.697248",
      "MEAN_MOTION": 14.43289486,
      "ECCENTRICITY": 0.00021656,
      "INCLINATION": 86.4558,
      "RA_OF_ASC_NODE": 356.4814,
      "ARG_OF_PERICENTER": 95.2651,
      "MEAN_ANOMALY": 264.8797,
      "EPHEMERIS_TYPE": 0,
      "CLASSIFICATION_TYPE": "U",
      "NORAD_CAT_ID": 42806,
      "ELEMENT_SET_NO": 999,
      "REV_AT_EPOCH": 46239,
      "BSTAR": 0.00013364486,
      "MEAN_MOTION_DOT": 0.0000047,
      "MEAN_MOTION_DDOT": 0
    },
    {
      "OBJECT_NAME": "IRIDIUM 118",
      "OBJECT_ID": "2017-039E",
      "EPOCH": "2026-03-26T22:00:22.960224",
      "MEAN_MOTION": 14.34217108,
      "ECCENTRICITY": 0.00020217,
      "INCLINATION": 86.4002,
      "RA_OF_ASC_NODE": 28.0047,
      "ARG_OF_PERICENTER": 82.8566,
      "MEAN_ANOMALY": 277.286,
      "EPHEMERIS_TYPE": 0,
      "CLASSIFICATION_TYPE": "U",
      "NORAD_CAT_ID": 42807,
      "ELEMENT_SET_NO": 999,
      "REV_AT_EPOCH": 45815,
      "BSTAR": -0.000029168691,
      "MEAN_MOTION_DOT": -6.2e-7,
      "MEAN_MOTION_DDOT": 0
    },
    {
      "OBJECT_NAME": "IRIDIUM 117",
      "OBJECT_ID": "2017-039F",
      "EPOCH": "2026-03-26T22:27:46.945728",
      "MEAN_MOTION": 14.3421778,
      "ECCENTRICITY": 0.00020817,
      "INCLINATION": 86.4001,
      "RA_OF_ASC_NODE": 27.9547,
      "ARG_OF_PERICENTER": 88.1646,
      "MEAN_ANOMALY": 271.9788,
      "EPHEMERIS_TYPE": 0,
      "CLASSIFICATION_TYPE": "U",
      "NORAD_CAT_ID": 42808,
      "ELEMENT_SET_NO": 999,
      "REV_AT_EPOCH": 45818,
      "BSTAR": 0.00010051283,
      "MEAN_MOTION_DOT": 0.00000301,
      "MEAN_MOTION_DDOT": 0
    },
    {
      "OBJECT_NAME": "IRIDIUM 126",
      "OBJECT_ID": "2017-039G",
      "EPOCH": "2026-03-26T21:23:50.955936",
      "MEAN_MOTION": 14.34217998,
      "ECCENTRICITY": 0.0002068,
      "INCLINATION": 86.4003,
      "RA_OF_ASC_NODE": 28.0231,
      "ARG_OF_PERICENTER": 84.7784,
      "MEAN_ANOMALY": 275.3647,
      "EPHEMERIS_TYPE": 0,
      "CLASSIFICATION_TYPE": "U",
      "NORAD_CAT_ID": 42809,
      "ELEMENT_SET_NO": 999,
      "REV_AT_EPOCH": 45815,
      "BSTAR": 0.00011049965,
      "MEAN_MOTION_DOT": 0.00000329,
      "MEAN_MOTION_DDOT": 0
    },
    {
      "OBJECT_NAME": "IRIDIUM 124",
      "OBJECT_ID": "2017-039H",
      "EPOCH": "2026-03-26T14:50:20.143680",
      "MEAN_MOTION": 14.43286945,
      "ECCENTRICITY": 0.00021168,
      "INCLINATION": 86.4505,
      "RA_OF_ASC_NODE": 324.9043,
      "ARG_OF_PERICENTER": 87.7324,
      "MEAN_ANOMALY": 272.4119,
      "EPHEMERIS_TYPE": 0,
      "CLASSIFICATION_TYPE": "U",
      "NORAD_CAT_ID": 42810,
      "ELEMENT_SET_NO": 999,
      "REV_AT_EPOCH": 46320,
      "BSTAR": 0.000094762643,
      "MEAN_MOTION_DOT": 0.00000339,
      "MEAN_MOTION_DDOT": 0
    },
    {
      "OBJECT_NAME": "IRIDIUM 128",
      "OBJECT_ID": "2017-039J",
      "EPOCH": "2026-03-26T22:50:58.781472",
      "MEAN_MOTION": 14.34218259,
      "ECCENTRICITY": 0.00023335,
      "INCLINATION": 86.3939,
      "RA_OF_ASC_NODE": 59.5197,
      "ARG_OF_PERICENTER": 91.7515,
      "MEAN_ANOMALY": 268.3948,
      "EPHEMERIS_TYPE": 0,
      "CLASSIFICATION_TYPE": "U",
      "NORAD_CAT_ID": 42811,
      "ELEMENT_SET_NO": 999,
      "REV_AT_EPOCH": 45819,
      "BSTAR": 0.00010694625,
      "MEAN_MOTION_DOT": 0.00000319,
      "MEAN_MOTION_DDOT": 0
    },
    {
      "OBJECT_NAME": "IRIDIUM 121",
      "OBJECT_ID": "2017-039K",
      "EPOCH": "2026-03-26T21:51:14.155200",
      "MEAN_MOTION": 14.34221742,
      "ECCENTRICITY": 0.0002282,
      "INCLINATION": 86.4005,
      "RA_OF_ASC_NODE": 28.0423,
      "ARG_OF_PERICENTER": 85.3621,
      "MEAN_ANOMALY": 274.7835,
      "EPHEMERIS_TYPE": 0,
      "CLASSIFICATION_TYPE": "U",
      "NORAD_CAT_ID": 42812,
      "ELEMENT_SET_NO": 999,
      "REV_AT_EPOCH": 45803,
      "BSTAR": 0.00010017419,
      "MEAN_MOTION_DOT": 0.000003,
      "MEAN_MOTION_DDOT": 0
    },
    {
      "OBJECT_NAME": "IRIDIUM 133",
      "OBJECT_ID": "2017-061A",
      "EPOCH": "2026-03-26T23:36:38.733696",
      "MEAN_MOTION": 14.34217986,
      "ECCENTRICITY": 0.00022387,
      "INCLINATION": 86.3943,
      "RA_OF_ASC_NODE": 59.6222,
      "ARG_OF_PERICENTER": 89.521,
      "MEAN_ANOMALY": 270.6243,
      "EPHEMERIS_TYPE": 0,
      "CLASSIFICATION_TYPE": "U",
      "NORAD_CAT_ID": 42955,
      "ELEMENT_SET_NO": 999,
      "REV_AT_EPOCH": 44299,
      "BSTAR": 0.000061515818,
      "MEAN_MOTION_DOT": 0.00000192,
      "MEAN_MOTION_DDOT": 0
    },
    {
      "OBJECT_NAME": "IRIDIUM 100",
      "OBJECT_ID": "2017-061B",
      "EPOCH": "2026-03-26T23:27:30.725280",
      "MEAN_MOTION": 14.34217422,
      "ECCENTRICITY": 0.0002221,
      "INCLINATION": 86.3939,
      "RA_OF_ASC_NODE": 59.5453,
      "ARG_OF_PERICENTER": 89.2305,
      "MEAN_ANOMALY": 270.9145,
      "EPHEMERIS_TYPE": 0,
      "CLASSIFICATION_TYPE": "U",
      "NORAD_CAT_ID": 42956,
      "ELEMENT_SET_NO": 999,
      "REV_AT_EPOCH": 44299,
      "BSTAR": 0.000072317737,
      "MEAN_MOTION_DOT": 0.00000222,
      "MEAN_MOTION_DDOT": 0
    },
    {
      "OBJECT_NAME": "IRIDIUM 122",
      "OBJECT_ID": "2017-061C",
      "EPOCH": "2026-03-26T22:41:50.741088",
      "MEAN_MOTION": 14.34216911,
      "ECCENTRICITY": 0.00019991,
      "INCLINATION": 86.3939,
      "RA_OF_ASC_NODE": 59.559,
      "ARG_OF_PERICENTER": 88.6149,
      "MEAN_ANOMALY": 271.5275,
      "EPHEMERIS_TYPE": 0,
      "CLASSIFICATION_TYPE": "U",
      "NORAD_CAT_ID": 42957,
      "ELEMENT_SET_NO": 999,
      "REV_AT_EPOCH": 44299,
      "BSTAR": -0.000029717982,
      "MEAN_MOTION_DOT": -6.3e-7,
      "MEAN_MOTION_DDOT": 0
    },
    {
      "OBJECT_NAME": "IRIDIUM 129",
      "OBJECT_ID": "2017-061D",
      "EPOCH": "2026-03-26T23:18:22.693536",
      "MEAN_MOTION": 14.34217329,
      "ECCENTRICITY": 0.00022006,
      "INCLINATION": 86.3936,
      "RA_OF_ASC_NODE": 59.6139,
      "ARG_OF_PERICENTER": 79.4952,
      "MEAN_ANOMALY": 280.6492,
      "EPHEMERIS_TYPE": 0,
      "CLASSIFICATION_TYPE": "U",
      "NORAD_CAT_ID": 42958,
      "ELEMENT_SET_NO": 999,
      "REV_AT_EPOCH": 44301,
      "BSTAR": 0.00000799651,
      "MEAN_MOTION_DOT": 4.2e-7,
      "MEAN_MOTION_DDOT": 0
    },
    {
      "OBJECT_NAME": "IRIDIUM 119",
      "OBJECT_ID": "2017-061E",
      "EPOCH": "2026-03-26T22:32:42.648864",
      "MEAN_MOTION": 14.34217325,
      "ECCENTRICITY": 0.00020748,
      "INCLINATION": 86.3942,
      "RA_OF_ASC_NODE": 59.6231,
      "ARG_OF_PERICENTER": 85.4161,
      "MEAN_ANOMALY": 274.7272,
      "EPHEMERIS_TYPE": 0,
      "CLASSIFICATION_TYPE": "U",
      "NORAD_CAT_ID": 42959,
      "ELEMENT_SET_NO": 999,
      "REV_AT_EPOCH": 44302,
      "BSTAR": 0.000013623895,
      "MEAN_MOTION_DOT": 5.8e-7,
      "MEAN_MOTION_DDOT": 0
    },
    {
      "OBJECT_NAME": "IRIDIUM 107",
      "OBJECT_ID": "2017-061F",
      "EPOCH": "2026-03-26T23:00:06.668064",
      "MEAN_MOTION": 14.3421757,
      "ECCENTRICITY": 0.00019275,
      "INCLINATION": 86.394,
      "RA_OF_ASC_NODE": 59.6361,
      "ARG_OF_PERICENTER": 94.7299,
      "MEAN_ANOMALY": 265.4117,
      "EPHEMERIS_TYPE": 0,
      "CLASSIFICATION_TYPE": "U",
      "NORAD_CAT_ID": 42960,
      "ELEMENT_SET_NO": 999,
      "REV_AT_EPOCH": 44303,
      "BSTAR": -0.000004162962,
      "MEAN_MOTION_DOT": 8e-8,
      "MEAN_MOTION_DDOT": 0
    }
  ]