IRIDIUM 115             
1 42806U 17039D   26085.89219557  .00000470  00000+0  13364-3 0  9997
2 42806  86.4558 356.4814 0002165  95.2651 264.8797 14.43289486462397
IRIDIUM 118             
1 42807U 17039E   26085.91693241 -.00000062  00000+0 -29169-4 0  9997
2 42807  86.4002  28.0047 0002021  82.8566 277.2860 14.34217108458150
IRIDIUM 117             
1 42808U 17039F   26085.93596002  .00000301  00000+0  10051-3 0  9990
2 42808  86.4001  27.9547 0002081  88.1646 271.9788 14.34217780458186
IRIDIUM 126             
1 42809U 17039G   26085.89156199  .00000329  00000+0  11050-3 0  9995
2 42809  86.4003  28.0231 0002068  84.7784 275.3647 14.34217998458151
IRIDIUM 124             
1 42810U 17039H   26085.61828870  .00000339  00000+0  94763-4 0  9993
2 42810  86.4505 324.9043 0002116  87.7324 272.4119 14.43286945463208
IRIDIUM 128             
1 42811U 17039J   26085.95206923  .00000319  00000+0  10695-3 0  9999
2 42811  86.3939  59.5197 0002333  91.7515 268.3948 14.34218259458197
IRIDIUM 121             
1 42812U 17039K   26085.91058050  .00000300  00000+0  10017-3 0  9990
2 42812  86.4005  28.0423 0002282  85.3621 274.7835 14.34221742458036
IRIDIUM 133             
1 42955U 17061A   26085.98378164  .00000192  00000+0  61516-4 0  9991
2 42955  86.3943  59.6222 0002238  89.5210 270.6243 14.34217986442993
IRIDIUM 100             
1 42956U 17061B   26085.97743895  .00000222  00000+0  72318-4 0  9994
2 42956  86.3939  59.5453 0002221  89.2305 270.9145 14.34217422442997
IRIDIUM 122             
1 42957U 17061C   26085.94572617 -.00000063  00000+0 -29718-4 0  9995
2 42957  86.3939  59.5590 0001999  88.6149 271.5275 14.34216911442993
IRIDIUM 129             
1 42958U 17061D   26085.97109599  .00000042  00000+0  79965-5 0  9999
2 42958  86.3936  59.6139 0002200  79.4952 280.6492 14.34217329443017
IRIDIUM 119             
1 42959U 17061E   26085.93938251  .00000058  00000+0  13624-4 0  9997
2 42959  86.3942  59.6231 0002074  85.4161 274.7272 14.34217325443023
IRIDIUM 107             
1 42960U 17061F   26085.95841051  .00000008  00000+0 -41630-5 0  9997
2 42960  86.3940  59.6361 0001927  94.7299 265.4117 14.34217570443036
